GLOBALSTAR M023         
1 25621U 99004A   24224.50199539 -.00000080  00000+0  13093-3 0  9990
2 25621  52.0100 276.4225 0010391 163.0431 335.7205 12.62463986176709
GLOBALSTAR M040         
1 25622U 99004B   24224.51472779 -.00000046  00000+0  32526-3 0  9996
2 25622  51.9912 280.0777 0001024  96.4089  41.6854 12.61978938176455
GLOBALSTAR M036         
1 25623U 99004C   24223.82129782  .00000025  00000+0  15662-2 0  9990
2 25623  51.9999 338.3631 0011410 171.7076   1.1566 11.86574394142133
GLOBALSTAR M038         
1 25624U 99004D   24224.05471803 -.00000062  00000+0  27088-3 0  9999
2 25624  51.9947 244.7043 0001932 130.8340 250.2570 12.32504814164095
GLOBALSTAR M022         
1 25649U 99012A   24224.52140365 -.00000043  00000+0  52393-3 0  9999
2 25649  52.0046  52.7051 0001646 284.1979 118.9810 12.02486357139203
GLOBALSTAR M041         
1 25650U 99012B   24224.49785554 -.00000031  00000+0  70445-3 0  9997
2 25650  52.0016 284.7821 0002802  80.2016 279.9137 11.96658584141451
GLOBALSTAR M037         
1 25652U 99012D   24224.52397427 -.00000112  00000+0 -46955-4 0  9992
2 25652  52.0009  47.0839 0001379 195.1899 204.7251 12.62413578172214
